{
  "type": "FeatureCollection",
  "features": [
    {
      "type": "Feature",
      "properties": {
        "norad_id": 19071,
        "name": "OSCAR 32",
        "group": "nnss",
        "lat": -59.228589534707126,
        "lon": 16.76366388330536,
        "alt_km": 1200.3378078750966,
        "timestamp": "2025-12-02T23:34:15.785053+00:00",
        "meta_object_name": "OSCAR 32",
        "meta_object_id": "1988-033B",
        "meta_epoch": "2025-12-02T09:27:52.424064",
        "meta_mean_motion": 13.27951817,
        "meta_eccentricity": 0.0187498,
        "meta_inclination": 90.3228,
        "meta_ra_of_asc_node": 16.2028,
        "meta_arg_of_pericenter": 195.5616,
        "meta_mean_anomaly": 174.9323,
        "meta_ephemeris_type": 0,
        "meta_classification_type": "U",
        "meta_norad_cat_id": 19071,
        "meta_element_set_no": 999,
        "meta_rev_at_epoch": 82128,
        "meta_bstar": 0.00017843,
        "meta_mean_motion_dot": 9.7e-07,
        "meta_mean_motion_ddot": 0,
        "tle_line1": "1 19071U 88033B   25336.39435676  .00000097  00000+0  17843-3 0  9993",
        "tle_line2": "2 19071  90.3228  16.2028 0187498 195.5616 174.9323 13.27951817821287"
      },
      "geometry": {
        "type": "Point",
        "coordinates": [
          16.76366388330536,
          -59.228589534707126
        ]
      }
    },
    {
      "type": "Feature",
      "properties": {
        "norad_id": 19223,
        "name": "NOVA 2",
        "group": "nnss",
        "lat": -48.42734561252445,
        "lon": 78.27016998720673,
        "alt_km": 1180.948958473422,
        "timestamp": "2025-12-02T23:34:15.785063+00:00",
        "meta_object_name": "NOVA 2",
        "meta_object_id": "1988-052A",
        "meta_epoch": "2025-12-02T07:46:37.057728",
        "meta_mean_motion": 13.2293391,
        "meta_eccentricity": 0.0031413,
        "meta_inclination": 89.9873,
        "meta_ra_of_asc_node": 78.2853,
        "meta_arg_of_pericenter": 44.9309,
        "meta_mean_anomaly": 14.7161,
        "meta_ephemeris_type": 0,
        "meta_classification_type": "U",
        "meta_norad_cat_id": 19223,
        "meta_element_set_no": 999,
        "meta_rev_at_epoch": 80810,
        "meta_bstar": 0.00014832,
        "meta_mean_motion_dot": 7.1e-07,
        "meta_mean_motion_ddot": 0,
        "tle_line1": "1 19223U 88052A   25336.32404002  .00000071  00000+0  14832-3 0  9992",
        "tle_line2": "2 19223  89.9873  78.2853 0031413  44.9309  14.7161 13.22933910808107"
      },
      "geometry": {
        "type": "Point",
        "coordinates": [
          78.27016998720673,
          -48.42734561252445
        ]
      }
    },
    {
      "type": "Feature",
      "properties": {
        "norad_id": 19419,
        "name": "OSCAR 25",
        "group": "nnss",
        "lat": 58.187845418433035,
        "lon": 20.15401344465167,
        "alt_km": 1150.7779828680223,
        "timestamp": "2025-12-02T23:34:15.785073+00:00",
        "meta_object_name": "OSCAR 25",
        "meta_object_id": "1988-074A",
        "meta_epoch": "2025-12-02T09:01:29.380800",
        "meta_mean_motion": 13.42620226,
        "meta_eccentricity": 0.0094205,
        "meta_inclination": 90.0358,
        "meta_ra_of_asc_node": 20.2096,
        "meta_arg_of_pericenter": 275.9556,
        "meta_mean_anomaly": 93.8712,
        "meta_ephemeris_type": 0,
        "meta_classification_type": "U",
        "meta_norad_cat_id": 19419,
        "meta_element_set_no": 999,
        "meta_rev_at_epoch": 82501,
        "meta_bstar": 0.00023198,
        "meta_mean_motion_dot": 1.43e-06,
        "meta_mean_motion_ddot": 0,
        "tle_line1": "1 19419U 88074A   25336.37603450  .00000143  00000+0  23198-3 0  9991",
        "tle_line2": "2 19419  90.0358  20.2096 0094205 275.9556  93.8712 13.42620226825013"
      },
      "geometry": {
        "type": "Point",
        "coordinates": [
          20.15401344465167,
          58.187845418433035
        ]
      }
    },
    {
      "type": "Feature",
      "properties": {
        "norad_id": 19420,
        "name": "OSCAR 31",
        "group": "nnss",
        "lat": -56.73721129176874,
        "lon": 20.617217874468132,
        "alt_km": 1049.982368298376,
        "timestamp": "2025-12-02T23:34:15.785084+00:00",
        "meta_object_name": "OSCAR 31",
        "meta_object_id": "1988-074B",
        "meta_epoch": "2025-12-02T09:35:47.332896",
        "meta_mean_motion": 13.42581997,
        "meta_eccentricity": 0.0092429,
        "meta_inclination": 90.0374,
        "meta_ra_of_asc_node": 20.558,
        "meta_arg_of_pericenter": 269.9957,
        "meta_mean_anomaly": 100.0922,
        "meta_ephemeris_type": 0,
        "meta_classification_type": "U",
        "meta_norad_cat_id": 19420,
        "meta_element_set_no": 999,
        "meta_rev_at_epoch": 82512,
        "meta_bstar": 0.00019665,
        "meta_mean_motion_dot": 1.22e-06,
        "meta_mean_motion_ddot": 0,
        "tle_line1": "1 19420U 88074B   25336.39985339  .00000122  00000+0  19665-3 0  9995",
        "tle_line2": "2 19420  90.0374  20.5580 0092429 269.9957 100.0922 13.42581997825125"
      },
      "geometry": {
        "type": "Point",
        "coordinates": [
          20.617217874468132,
          -56.73721129176874
        ]
      }
    }
  ]
}